{
  "type": "FeatureCollection",
  "features": [
    {
      "type": "Feature",
      "properties": {
        "norad_id": 34918,
        "name": "COSMOS 2251 DEB",
        "group": "cosmos-2251-debris",
        "lat": -67.81165631004697,
        "lon": -170.22547387171602,
        "alt_km": 678.130819697516,
        "timestamp": "2025-12-06T14:35:37.521591+00:00",
        "meta_object_name": "COSMOS 2251 DEB",
        "meta_object_id": "1993-036ADP",
        "meta_epoch": "2025-12-02T07:49:20.078112",
        "meta_mean_motion": 14.60858458,
        "meta_eccentricity": 0.0034182,
        "meta_inclination": 74.0712,
        "meta_ra_of_asc_node": 333.4916,
        "meta_arg_of_pericenter": 302.4495,
        "meta_mean_anomaly": 120.4085,
        "meta_ephemeris_type": 0,
        "meta_classification_type": "U",
        "meta_norad_cat_id": 34918,
        "meta_element_set_no": 999,
        "meta_rev_at_epoch": 65184,
        "meta_bstar": 0.0024749,
        "meta_mean_motion_dot": 0.00012194,
        "meta_mean_motion_ddot": 0,
        "tle_line1": "1 34918U 93036ADP 25336.32592683  .00012194  00000+0  24749-2 0  9997",
        "tle_line2": "2 34918  74.0712 333.4916 0034182 302.4495 120.4085 14.60858458651845"
      },
      "geometry": {
        "type": "Point",
        "coordinates": [
          -170.22547387171602,
          -67.81165631004697
        ]
      }
    },
    {
      "type": "Feature",
      "properties": {
        "norad_id": 34924,
        "name": "COSMOS 2251 DEB",
        "group": "cosmos-2251-debris",
        "lat": -72.87865115038572,
        "lon": 32.87057539688599,
        "alt_km": 699.5211696500428,
        "timestamp": "2025-12-06T14:35:37.521602+00:00",
        "meta_object_name": "COSMOS 2251 DEB",
        "meta_object_id": "1993-036ADV",
        "meta_epoch": "2025-12-06T02:37:12.557568",
        "meta_mean_motion": 14.59924416,
        "meta_eccentricity": 0.00550345,
        "meta_inclination": 74.0406,
        "meta_ra_of_asc_node": 102.0968,
        "meta_arg_of_pericenter": 188.2406,
        "meta_mean_anomaly": 346.3863,
        "meta_ephemeris_type": 0,
        "meta_classification_type": "U",
        "meta_norad_cat_id": 34924,
        "meta_element_set_no": 999,
        "meta_rev_at_epoch": 87626,
        "meta_bstar": 0.0018816697,
        "meta_mean_motion_dot": 9.19e-05,
        "meta_mean_motion_ddot": 0,
        "tle_line1": "1 34924U 93036ADV 25340.10917312  .00009190  00000+0  18817-2 0  9996",
        "tle_line2": "2 34924  74.0406 102.0968 0055034 188.2406 346.3863 14.59924416876264"
      },
      "geometry": {
        "type": "Point",
        "coordinates": [
          32.87057539688599,
          -72.87865115038572
        ]
      }
    },
    {
      "type": "Feature",
      "properties": {
        "norad_id": 34944,
        "name": "COSMOS 2251 DEB",
        "group": "cosmos-2251-debris",
        "lat": -47.91608581772662,
        "lon": -135.74277866669345,
        "alt_km": 975.9228863079425,
        "timestamp": "2025-12-06T14:35:37.521612+00:00",
        "meta_object_name": "COSMOS 2251 DEB",
        "meta_object_id": "1993-036ADX",
        "meta_epoch": "2025-12-04T10:12:22.291200",
        "meta_mean_motion": 14.14155566,
        "meta_eccentricity": 0.0219658,
        "meta_inclination": 73.7499,
        "meta_ra_of_asc_node": 247.036,
        "meta_arg_of_pericenter": 96.0924,
        "meta_mean_anomaly": 266.529,
        "meta_ephemeris_type": 0,
        "meta_classification_type": "U",
        "meta_norad_cat_id": 34944,
        "meta_element_set_no": 999,
        "meta_rev_at_epoch": 63965,
        "meta_bstar": 0.0011088,
        "meta_mean_motion_dot": 2.638e-05,
        "meta_mean_motion_ddot": 0,
        "tle_line1": "1 34944U 93036ADX 25338.42525800  .00002638  00000+0  11088-2 0  9990",
        "tle_line2": "2 34944  73.7499 247.0360 0219658  96.0924 266.5290 14.14155566639655"
      },
      "geometry": {
        "type": "Point",
        "coordinates": [
          -135.74277866669345,
          -47.91608581772662
        ]
      }
    },
    {
      "type": "Feature",
      "properties": {
        "norad_id": 34946,
        "name": "COSMOS 2251 DEB",
        "group": "cosmos-2251-debris",
        "lat": 68.80193191959398,
        "lon": 41.48353150233366,
        "alt_km": 660.9646067332778,
        "timestamp": "2025-12-06T14:35:37.521622+00:00",
        "meta_object_name": "COSMOS 2251 DEB",
        "meta_object_id": "1993-036ADZ",
        "meta_epoch": "2025-12-06T07:40:42.125664",
        "meta_mean_motion": 14.61945055,
        "meta_eccentricity": 0.00488917,
        "meta_inclination": 74.0231,
        "meta_ra_of_asc_node": 354.4135,
        "meta_arg_of_pericenter": 133.6333,
        "meta_mean_anomaly": 226.8905,
        "meta_ephemeris_type": 0,
        "meta_classification_type": "U",
        "meta_norad_cat_id": 34946,
        "meta_element_set_no": 999,
        "meta_rev_at_epoch": 88115,
        "meta_bstar": 0.0010126035,
        "meta_mean_motion_dot": 5.131e-05,
        "meta_mean_motion_ddot": 0,
        "tle_line1": "1 34946U 93036ADZ 25340.31993201  .00005131  00000+0  10126-2 0  9990",
        "tle_line2": "2 34946  74.0231 354.4135 0048891 133.6333 226.8905 14.61945055881157"
      },
      "geometry": {
        "type": "Point",
        "coordinates": [
          41.48353150233366,
          68.80193191959398
        ]
      }
    },
    {
      "type": "Feature",
      "properties": {
        "norad_id": 34949,
        "name": "COSMOS 2251 DEB",
        "group": "cosmos-2251-debris",
        "lat": 64.54917317790027,
        "lon": 158.66438095070833,
        "alt_km": 695.5591097858105,
        "timestamp": "2025-12-06T14:35:37.521632+00:00",
        "meta_object_name": "COSMOS 2251 DEB",
        "meta_object_id": "1993-036AEC",
        "meta_epoch": "2025-12-05T02:26:13.832736",
        "meta_mean_motion": 14.73914183,
        "meta_eccentricity": 0.00804595,
        "meta_inclination": 74.0172,
        "meta_ra_of_asc_node": 124.5765,
        "meta_arg_of_pericenter": 271.443,
        "meta_mean_anomaly": 87.7527,
        "meta_ephemeris_type": 0,
        "meta_classification_type": "U",
        "meta_norad_cat_id": 34949,
        "meta_element_set_no": 999,
        "meta_rev_at_epoch": 88249,
        "meta_bstar": 0.0010189361,
        "meta_mean_motion_dot": 7.012e-05,
        "meta_mean_motion_ddot": 0,
        "tle_line1": "1 34949U 93036AEC 25339.10154899  .00007012  00000+0  10189-2 0  9999",
        "tle_line2": "2 34949  74.0172 124.5765 0080459 271.4430  87.7527 14.73914183882497"
      },
      "geometry": {
        "type": "Point",
        "coordinates": [
          158.66438095070833,
          64.54917317790027
        ]
      }
    },
    {
      "type": "Feature",
      "properties": {
        "norad_id": 34953,
        "name": "COSMOS 2251 DEB",
        "group": "cosmos-2251-debris",
        "lat": 22.0777088954917,
        "lon": -147.32361855195322,
        "alt_km": 686.42472694557,
        "timestamp": "2025-12-06T14:35:37.521642+00:00",
        "meta_object_name": "COSMOS 2251 DEB",
        "meta_object_id": "1993-036AEG",
        "meta_epoch": "2025-12-06T04:13:10.545600",
        "meta_mean_motion": 14.68868199,
        "meta_eccentricity": 0.00577162,
        "meta_inclination": 74.0934,
        "meta_ra_of_asc_node": 40.1518,
        "meta_arg_of_pericenter": 34.1957,
        "meta_mean_anomaly": 357.347,
        "meta_ephemeris_type": 0,
        "meta_classification_type": "U",
        "meta_norad_cat_id": 34953,
        "meta_element_set_no": 999,
        "meta_rev_at_epoch": 88032,
        "meta_bstar": 0.0012865376,
        "meta_mean_motion_dot": 7.69e-05,
        "meta_mean_motion_ddot": 0,
        "tle_line1": "1 34953U 93036AEG 25340.17581650  .00007690  00000+0  12865-2 0  9997",
        "tle_line2": "2 34953  74.0934  40.1518 0057716  34.1957 357.3470 14.68868199880327"
      },
      "geometry": {
        "type": "Point",
        "coordinates": [
          -147.32361855195322,
          22.0777088954917
        ]
      }
    },
    {
      "type": "Feature",
      "properties": {
        "norad_id": 34955,
        "name": "COSMOS 2251 DEB",
        "group": "cosmos-2251-debris",
        "lat": -43.66463704520836,
        "lon": -116.87641145018542,
        "alt_km": 520.0044069142523,
        "timestamp": "2025-12-06T14:35:37.521653+00:00",
        "meta_object_name": "COSMOS 2251 DEB",
        "meta_object_id": "1993-036AEJ",
        "meta_epoch": "2025-12-03T01:58:24.293568",
        "meta_mean_motion": 15.00189355,
        "meta_eccentricity": 0.00783052,
        "meta_inclination": 74.0373,
        "meta_ra_of_asc_node": 266.1437,
        "meta_arg_of_pericenter": 338.174,
        "meta_mean_anomaly": 21.6115,
        "meta_ephemeris_type": 0,
        "meta_classification_type": "U",
        "meta_norad_cat_id": 34955,
        "meta_element_set_no": 999,
        "meta_rev_at_epoch": 89889,
        "meta_bstar": 0.0013091752,
        "meta_mean_motion_dot": 0.00017463,
        "meta_mean_motion_ddot": 0,
        "tle_line1": "1 34955U 93036AEJ 25337.08222562  .00017463  00000+0  13092-2 0  9991",
        "tle_line2": "2 34955  74.0373 266.1437 0078305 338.1740  21.6115 15.00189355898895"
      },
      "geometry": {
        "type": "Point",
        "coordinates": [
          -116.87641145018542,
          -43.66463704520836
        ]
      }
    }
  ]
}